ORBVIEW 2 (SEASTAR)     
1 24883U 97037A   25333.18317970  .00000333  00000+0  13235-3 0  9998
2 24883  98.8451 129.9169 0002340  21.8896 338.2388 14.35400696494057
SL-16 R/B               
1 25400U 98043G   25333.11626433  .00000096  00000+0  59148-4 0  9992
2 25400  98.8105 280.8596 0009015 310.7134  49.3261 14.26020329424651
SL-16 R/B               
1 25407U 98045B   25333.20300580  .00000275  00000+0  16299-3 0  9991
2 25407  71.0127  32.8944 0007742 196.4124 163.6749 14.16173032412871
ISS (ZARYA)             
1 25544U 98067A   25332.93143523  .00009407  00000+0  17759-3 0  9996
2 25544  51.6312 210.8341 0003738 180.7008 179.3975 15.49177370540716
CZ-4B R/B               
1 25732U 99025C   25333.12522058  .00000082  00000+0  60729-4 0  9992
2 25732  98.6790  14.7086 0036036 274.2048 106.6412 14.18238401373916
OKEAN-O                 
1 25860U 99039A   25333.13393889  .00000850  00000+0  11897-3 0  9992
2 25860  97.9622  28.9523 0000959  73.5542 286.5775 14.80124705419518
SL-16 R/B               
1 25861U 99039B   25333.14211473  .00000721  00000+0  98671-4 0  9995
2 25861  98.0146  27.2914 0013964 219.7640 140.2550 14.81555336421970
DELTA 2 R/B             
1 25876U 99041E   25333.18831237  .00001038  00000+0  20710-3 0  9994
2 25876  51.7621 342.5399 0504880  51.8322 312.6993 14.11345668348831
HELIOS 1B               
1 25977U 99064A   25333.21298802  .00002153  00000+0  24570-3 0  9997
2 25977  98.1750 227.4781 0002307  60.4182 299.7262 14.87194387670323
TERRA                   
1 25994U 99068A   25333.17381274  .00000545  00000+0  12049-3 0  9992
2 25994  97.9768  25.3546 0003276 125.3767 300.1253 14.60927946380408
SL-16 R/B               
1 26070U 00006B   25333.19236568  .00000337  00000+0  19572-3 0  9996
2 26070  71.0023 309.1426 0017669 327.6534  32.3504 14.15804313334337
TITAN 4B R/B            
1 26474U 00047B   25333.15235993  .00004025  00000+0  26037-3 0  9998
2 26474  67.9901 323.0119 0039958 160.5731 199.6952 15.08627444377743
