CCSDS_OMM_VERS = 2.0
CREATION_DATE  = 
ORIGINATOR     = 

OBJECT_NAME    = ORBVIEW 2 (SEASTAR)
OBJECT_ID      = 1997-037A
CENTER_NAME    = EARTH
REF_FRAME      = TEME
TIME_SYSTEM    = UTC
MEAN_ELEMENT_THEORY = SGP/SGP4

EPOCH          = 2025-11-29T04:23:46.726080
MEAN_MOTION    = 14.35400696
ECCENTRICITY   = .000234
INCLINATION    = 98.8451
RA_OF_ASC_NODE = 129.9169
ARG_OF_PERICENTER = 21.8896
MEAN_ANOMALY   = 338.2388

EPHEMERIS_TYPE = 0
CLASSIFICATION_TYPE = U
NORAD_CAT_ID   = 24883
ELEMENT_SET_NO = 999
REV_AT_EPOCH   = 49405
BSTAR          = .13235E-3
MEAN_MOTION_DOT = .333E-5
MEAN_MOTION_DDOT = 0

CCSDS_OMM_VERS = 2.0
CREATION_DATE  = 
ORIGINATOR     = 

OBJECT_NAME    = SL-16 R/B
OBJECT_ID      = 1998-043G
CENTER_NAME    = EARTH
REF_FRAME      = TEME
TIME_SYSTEM    = UTC
MEAN_ELEMENT_THEORY = SGP/SGP4

EPOCH          = 2025-11-29T02:47:25.238112
MEAN_MOTION    = 14.26020329
ECCENTRICITY   = .0009015
INCLINATION    = 98.8105
RA_OF_ASC_NODE = 280.8596
ARG_OF_PERICENTER = 310.7134
MEAN_ANOMALY   = 49.3261

EPHEMERIS_TYPE = 0
CLASSIFICATION_TYPE = U
NORAD_CAT_ID   = 25400
ELEMENT_SET_NO = 999
REV_AT_EPOCH   = 42465
BSTAR          = .59148E-4
MEAN_MOTION_DOT = .96E-6
MEAN_MOTION_DDOT = 0

CCSDS_OMM_VERS = 2.0
CREATION_DATE  = 
ORIGINATOR     = 

OBJECT_NAME    = SL-16 R/B
OBJECT_ID      = 1998-045B
CENTER_NAME    = EARTH
REF_FRAME      = TEME
TIME_SYSTEM    = UTC
MEAN_ELEMENT_THEORY = SGP/SGP4

EPOCH          = 2025-11-29T04:52:19.701120
MEAN_MOTION    = 14.16173032
ECCENTRICITY   = .0007742
INCLINATION    = 71.0127
RA_OF_ASC_NODE = 32.8944
ARG_OF_PERICENTER = 196.4124
MEAN_ANOMALY   = 163.6749

EPHEMERIS_TYPE = 0
CLASSIFICATION_TYPE = U
NORAD_CAT_ID   = 25407
ELEMENT_SET_NO = 999
REV_AT_EPOCH   = 41287
BSTAR          = .16299E-3
MEAN_MOTION_DOT = .275E-5
MEAN_MOTION_DDOT = 0

CCSDS_OMM_VERS = 2.0
CREATION_DATE  = 
ORIGINATOR     = 

OBJECT_NAME    = ISS (ZARYA)
OBJECT_ID      = 1998-067A
CENTER_NAME    = EARTH
REF_FRAME      = TEME
TIME_SYSTEM    = UTC
MEAN_ELEMENT_THEORY = SGP/SGP4

EPOCH          = 2025-11-28T22:21:16.003872
MEAN_MOTION    = 15.49177370
ECCENTRICITY   = .0003738
INCLINATION    = 51.6312
RA_OF_ASC_NODE = 210.8341
ARG_OF_PERICENTER = 180.7008
MEAN_ANOMALY   = 179.3975

EPHEMERIS_TYPE = 0
CLASSIFICATION_TYPE = U
NORAD_CAT_ID   = 25544
ELEMENT_SET_NO = 999
REV_AT_EPOCH   = 54071
BSTAR          = .17759E-3
MEAN_MOTION_DOT = .9407E-4
MEAN_MOTION_DDOT = 0

CCSDS_OMM_VERS = 2.0
CREATION_DATE  = 
ORIGINATOR     = 

OBJECT_NAME    = CZ-4B R/B
OBJECT_ID      = 1999-025C
CENTER_NAME    = EARTH
REF_FRAME      = TEME
TIME_SYSTEM    = UTC
MEAN_ELEMENT_THEORY = SGP/SGP4

EPOCH          = 2025-11-29T03:00:19.058112
MEAN_MOTION    = 14.18238401
ECCENTRICITY   = .0036036
INCLINATION    = 98.6790
RA_OF_ASC_NODE = 14.7086
ARG_OF_PERICENTER = 274.2048
MEAN_ANOMALY   = 106.6412

EPHEMERIS_TYPE = 0
CLASSIFICATION_TYPE = U
NORAD_CAT_ID   = 25732
ELEMENT_SET_NO = 999
REV_AT_EPOCH   = 37391
BSTAR          = .60729E-4
MEAN_MOTION_DOT = .82E-6
MEAN_MOTION_DDOT = 0

CCSDS_OMM_VERS = 2.0
CREATION_DATE  = 
ORIGINATOR     = 

OBJECT_NAME    = OKEAN-O
OBJECT_ID      = 1999-039A
CENTER_NAME    = EARTH
REF_FRAME      = TEME
TIME_SYSTEM    = UTC
MEAN_ELEMENT_THEORY = SGP/SGP4

EPOCH          = 2025-11-29T03:12:52.320096
MEAN_MOTION    = 14.80124705
ECCENTRICITY   = .0000959
INCLINATION    = 97.9622
RA_OF_ASC_NODE = 28.9523
ARG_OF_PERICENTER = 73.5542
MEAN_ANOMALY   = 286.5775

EPHEMERIS_TYPE = 0
CLASSIFICATION_TYPE = U
NORAD_CAT_ID   = 25860
ELEMENT_SET_NO = 999
REV_AT_EPOCH   = 41951
BSTAR          = .11897E-3
MEAN_MOTION_DOT = .85E-5
MEAN_MOTION_DDOT = 0

CCSDS_OMM_VERS = 2.0
CREATION_DATE  = 
ORIGINATOR     = 

OBJECT_NAME    = SL-16 R/B
OBJECT_ID      = 1999-039B
CENTER_NAME    = EARTH
REF_FRAME      = TEME
TIME_SYSTEM    = UTC
MEAN_ELEMENT_THEORY = SGP/SGP4

EPOCH          = 2025-11-29T03:24:38.712672
MEAN_MOTION    = 14.81555336
ECCENTRICITY   = .0013964
INCLINATION    = 98.0146
RA_OF_ASC_NODE = 27.2914
ARG_OF_PERICENTER = 219.7640
MEAN_ANOMALY   = 140.2550

EPHEMERIS_TYPE = 0
CLASSIFICATION_TYPE = U
NORAD_CAT_ID   = 25861
ELEMENT_SET_NO = 999
REV_AT_EPOCH   = 42197
BSTAR          = .98671E-4
MEAN_MOTION_DOT = .721E-5
MEAN_MOTION_DDOT = 0

CCSDS_OMM_VERS = 2.0
CREATION_DATE  = 
ORIGINATOR     = 

OBJECT_NAME    = DELTA 2 R/B
OBJECT_ID      = 1999-041E
CENTER_NAME    = EARTH
REF_FRAME      = TEME
TIME_SYSTEM    = UTC
MEAN_ELEMENT_THEORY = SGP/SGP4

EPOCH          = 2025-11-29T04:31:10.188768
MEAN_MOTION    = 14.11345668
ECCENTRICITY   = .050488
INCLINATION    = 51.7621
RA_OF_ASC_NODE = 342.5399
ARG_OF_PERICENTER = 51.8322
MEAN_ANOMALY   = 312.6993

EPHEMERIS_TYPE = 0
CLASSIFICATION_TYPE = U
NORAD_CAT_ID   = 25876
ELEMENT_SET_NO = 999
REV_AT_EPOCH   = 34883
BSTAR          = .2071E-3
MEAN_MOTION_DOT = .1038E-4
MEAN_MOTION_DDOT = 0

CCSDS_OMM_VERS = 2.0
CREATION_DATE  = 
ORIGINATOR     = 

OBJECT_NAME    = HELIOS 1B
OBJECT_ID      = 1999-064A
CENTER_NAME    = EARTH
REF_FRAME      = TEME
TIME_SYSTEM    = UTC
MEAN_ELEMENT_THEORY = SGP/SGP4

EPOCH          = 2025-11-29T05:06:42.164928
MEAN_MOTION    = 14.87194387
ECCENTRICITY   = .0002307
INCLINATION    = 98.1750
RA_OF_ASC_NODE = 227.4781
ARG_OF_PERICENTER = 60.4182
MEAN_ANOMALY   = 299.7262

EPHEMERIS_TYPE = 0
CLASSIFICATION_TYPE = U
NORAD_CAT_ID   = 25977
ELEMENT_SET_NO = 999
REV_AT_EPOCH   = 67032
BSTAR          = .2457E-3
MEAN_MOTION_DOT = .2153E-4
MEAN_MOTION_DDOT = 0

CCSDS_OMM_VERS = 2.0
CREATION_DATE  = 
ORIGINATOR     = 

OBJECT_NAME    = TERRA
OBJECT_ID      = 1999-068A
CENTER_NAME    = EARTH
REF_FRAME      = TEME
TIME_SYSTEM    = UTC
MEAN_ELEMENT_THEORY = SGP/SGP4

EPOCH          = 2025-11-29T04:10:17.420736
MEAN_MOTION    = 14.60927946
ECCENTRICITY   = .0003276
INCLINATION    = 97.9768
RA_OF_ASC_NODE = 25.3546
ARG_OF_PERICENTER = 125.3767
MEAN_ANOMALY   = 300.1253

EPHEMERIS_TYPE = 0
CLASSIFICATION_TYPE = U
NORAD_CAT_ID   = 25994
ELEMENT_SET_NO = 999
REV_AT_EPOCH   = 38040
BSTAR          = .12049E-3
MEAN_MOTION_DOT = .545E-5
MEAN_MOTION_DDOT = 0

CCSDS_OMM_VERS = 2.0
CREATION_DATE  = 
ORIGINATOR     = 

OBJECT_NAME    = SL-16 R/B
OBJECT_ID      = 2000-006B
CENTER_NAME    = EARTH
REF_FRAME      = TEME
TIME_SYSTEM    = UTC
MEAN_ELEMENT_THEORY = SGP/SGP4

EPOCH          = 2025-11-29T04:37:00.394752
MEAN_MOTION    = 14.15804313
ECCENTRICITY   = .0017669
INCLINATION    = 71.0023
RA_OF_ASC_NODE = 309.1426
ARG_OF_PERICENTER = 327.6534
MEAN_ANOMALY   = 32.3504

EPHEMERIS_TYPE = 0
CLASSIFICATION_TYPE = U
NORAD_CAT_ID   = 26070
ELEMENT_SET_NO = 999
REV_AT_EPOCH   = 33433
BSTAR          = .19572E-3
MEAN_MOTION_DOT = .337E-5
MEAN_MOTION_DDOT = 0

CCSDS_OMM_VERS = 2.0
CREATION_DATE  = 
ORIGINATOR     = 

OBJECT_NAME    = TITAN 4B R/B
OBJECT_ID      = 2000-047B
CENTER_NAME    = EARTH
REF_FRAME      = TEME
TIME_SYSTEM    = UTC
MEAN_ELEMENT_THEORY = SGP/SGP4

EPOCH          = 2025-11-29T03:39:23.897952
MEAN_MOTION    = 15.08627444
ECCENTRICITY   = .0039958
INCLINATION    = 67.9901
RA_OF_ASC_NODE = 323.0119
ARG_OF_PERICENTER = 160.5731
MEAN_ANOMALY   = 199.6952

EPHEMERIS_TYPE = 0
CLASSIFICATION_TYPE = U
NORAD_CAT_ID   = 26474
ELEMENT_SET_NO = 999
REV_AT_EPOCH   = 37774
BSTAR          = .26037E-3
MEAN_MOTION_DOT = .4025E-4
MEAN_MOTION_DDOT = 0

